OBJECT_NAME,OBJECT_ID,EPOCH,MEAN_MOTION,ECCENTRICITY,INCLINATION,RA_OF_ASC_NODE,ARG_OF_PERICENTER,MEAN_ANOMALY,EPHEMERIS_TYPE,CLASSIFICATION_TYPE,NORAD_CAT_ID,ELEMENT_SET_NO,REV_AT_EPOCH,BSTAR,MEAN_MOTION_DOT,MEAN_MOTION_DDOT
SATELIOT_2,2024-149BU,2026-05-12T22:01:28.834176,14.96227357,.0001347,97.6833,208.5194,108.5950,251.5417,0,U,60534,999,9469,.60189E-4,.622E-5,0
NIGHTJAR,2024-149BV,2026-05-13T05:04:50.721024,14.98804080,.00013556,97.6836,210.4082,151.1300,208.9998,0,U,60535,999,13763,.14989502E-3,.1748E-4,0
LEMUR-2-MARHISYAM,2024-149BW,2026-05-13T03:49:21.020448,15.10508098,.00015435,97.6878,215.8967,188.7888,171.3314,0,U,60536,999,9519,.42822405E-3,.6992E-4,0
SATELIOT_4,2024-149BX,2026-05-13T04:52:42.203136,14.96534300,.00030681,97.6737,208.3510,130.9150,229.2338,0,U,60537,999,9474,.10745867E-3,.1165E-4,0
PICO-02A021,2024-149BY,2026-05-13T03:35:11.087232,15.02913185,.00067838,97.6770,212.2935,126.9611,233.2236,0,U,60538,999,9447,.24055899E-3,.317E-4,0
ICEYE-X43,2024-149BZ,2026-05-13T04:49:04.345536,14.99746798,.00044919,97.6772,210.6488,198.5249,161.5812,0,U,60539,999,9487,.13462131E-3,.1604E-4,0
HAWK-10A,2024-149CA,2026-05-13T04:45:56.913696,14.96398487,.00035608,97.6894,209.7129,167.1449,192.9864,0,U,60540,999,9475,.55990392E-4,.577E-5,0
UMBRA-09,2024-149CB,2026-05-13T04:25:40.609920,15.16950594,.00014278,97.6968,219.8247,136.3771,223.7575,0,U,60541,999,9541,.55119899E-3,.10814E-3,0
QPS-SAR-8 (AMATERU-IV),2024-149CC,2026-05-13T04:43:34.418496,15.03767205,.00024843,97.6665,212.6515,196.0086,164.1061,0,U,60542,999,9501,.19622111E-3,.2633E-4,0
ARCTIC WEATHER SATELLITE,2024-149CD,2026-05-13T03:51:44.680320,14.89795499,.00016369,97.6807,204.6250,180.2476,179.8741,0,U,60543,999,9408,.55420418E-4,.478E-5,0
CAPELLA-15 (ACADIA-5),2024-149CE,2026-05-12T22:08:04.536672,14.92415319,.00042626,97.6781,206.7024,175.3683,184.7577,0,U,60544,999,9459,.48542665E-4,.442E-5,0
HAWK-10B,2024-149CF,2026-05-13T04:45:44.295840,14.96399011,.00049039,97.6815,209.1032,195.6774,164.4296,0,U,60545,999,9475,.60474634E-4,.628E-5,0
ICEYE-X39,2024-149CG,2026-05-13T04:24:12.586464,14.99708403,.00022768,97.6822,210.6824,177.6514,182.4721,0,U,60546,999,9487,.13428134E-3,.1598E-4,0
UMBRA-10,2024-149CH,2026-05-12T23:40:04.183392,15.16945126,.00022327,97.6970,219.6481,109.9708,250.1765,0,U,60547,999,9539,.52890999E-3,.10372E-3,0
ICEYE-X33,2024-149CJ,2026-05-13T04:02:26.831904,15.00896443,.00005101,97.7211,212.5224,326.5121,33.6071,0,U,60548,999,9495,.24659856E-3,.3079E-4,0
ICEYE-X40,2024-149CK,2026-05-13T03:56:46.388256,14.97828544,.0004875,97.6815,210.2247,170.7501,189.3812,0,U,60549,999,9483,.15223848E-3,.1732E-4,0
SATELIOT_1,2024-149CL,2026-05-13T03:47:46.783104,14.97922733,.0006792,97.6753,209.6413,176.0376,184.0901,0,U,60550,999,9482,.19509842E-3,.2242E-4,0
BRO-14,2024-149CM,2026-05-13T03:36:05.139936,14.96107699,.00061584,97.6873,209.5572,202.0803,158.0154,0,U,60551,999,9475,.87738371E-4,.93E-5,0
SATELIOT_3,2024-149CN,2026-05-13T04:48:37.615104,14.97903066,.00048455,97.6819,210.4430,188.9594,171.1543,0,U,60552,999,9484,.85117329E-4,.944E-5,0
BRO-15,2024-149CP,2026-05-13T04:45:50.596992,14.96065093,.00076576,97.6804,209.2398,195.1182,164.9812,0,U,60553,999,9477,.21086366E-4,.18E-5,0
UM5-RIBAT,2024-149CQ,2026-05-13T04:56:56.166432,15.00871114,.00031594,97.6660,211.4782,116.8833,243.2714,0,U,60554,999,9494,.13226999E-3,.1623E-4,0
UM5-EOSAT,2024-149CR,2026-05-13T04:22:38.736192,15.01276031,.00067116,97.6656,212.3565,218.7597,141.3146,0,U,60555,999,9496,.14049239E-3,.1747E-4,0
LASARSAT,2024-247Q,2026-05-13T04:41:55.729824,15.44164427,.00047733,44.9734,98.4968,120.9892,239.1466,0,U,62391,999,7790,.5028983E-3,.23285E-3,0
CROCUBE,2024-247T,2026-05-13T04:02:10.019328,15.45750204,.00043929,44.9712,96.5072,123.9905,236.1402,0,U,62394,999,7792,.44258892E-3,.21595E-3,0
TEVEL2-4,2025-052D,2026-05-13T03:38:33.485280,15.33358441,.00016413,97.3947,29.5134,173.1099,187.0166,0,U,63213,999,6474,.37312972E-3,.11956E-3,0
TEVEL2-5,2025-052E,2026-05-12T23:20:46.464000,15.33198220,.0001593,97.3948,29.2919,172.4870,187.6397,0,U,63214,999,6471,.35485E-3,.11308E-3,0
TEVEL2-6,2025-052F,2026-05-12T11:05:25.307808,15.33149501,.0001596,97.3947,28.7660,179.6392,180.4852,0,U,63215,999,6463,.34176E-3,.10871E-3,0
TEVEL2-1,2025-052H,2026-05-12T05:14:07.259712,15.32655601,.00009995,97.3919,28.1875,201.0978,159.0223,0,U,63217,999,6458,.31961882E-3,.10003E-3,0
TEVEL2-3,2025-052J,2026-05-12T16:06:13.167072,15.32713071,.00010299,97.3924,28.6575,198.4062,161.7143,0,U,63218,999,6465,.33828149E-3,.10612E-3,0
TEVEL2-2,2025-052K,2026-05-12T09:56:51.566208,15.32665711,.0001022,97.3921,28.3853,202.9376,157.1820,0,U,63219,999,6461,.32453E-3,.10162E-3,0
