SATELIOT_2              
1 60534U 24149BU  26132.91769484  .00000622  00000+0  60189-4 0  9997
2 60534  97.6833 208.5194 0001347 108.5950 251.5417 14.96227357 94697
NIGHTJAR                
1 60535U 24149BV  26133.21169816  .00001748  00000+0  14990-3 0  9993
2 60535  97.6836 210.4082 0001355 151.1300 208.9998 14.98804080137639
LEMUR-2-MARHISYAM       
1 60536U 24149BW  26133.15927107  .00006992  00000+0  42822-3 0  9993
2 60536  97.6878 215.8967 0001543 188.7888 171.3314 15.10508098 95197
SATELIOT_4              
1 60537U 24149BX  26133.20326624  .00001165  00000+0  10746-3 0  9994
2 60537  97.6737 208.3510 0003068 130.9150 229.2338 14.96534300 94745
PICO-02A021             
1 60538U 24149BY  26133.14943388  .00003170  00000+0  24056-3 0  9997
2 60538  97.6770 212.2935 0006783 126.9611 233.2236 15.02913185 94474
ICEYE-X43               
1 60539U 24149BZ  26133.20074474  .00001604  00000+0  13462-3 0  9995
2 60539  97.6772 210.6488 0004491 198.5249 161.5812 14.99746798 94874
HAWK-10A                
1 60540U 24149CA  26133.19857539  .00000577  00000+0  55990-4 0  9997
2 60540  97.6894 209.7129 0003560 167.1449 192.9864 14.96398487 94759
UMBRA-09                
1 60541U 24149CB  26133.18449780  .00010814  00000+0  55120-3 0  9991
2 60541  97.6968 219.8247 0001427 136.3771 223.7575 15.16950594 95413
QPS-SAR-8 (AMATERU-IV)  
1 60542U 24149CC  26133.19692614  .00002633  00000+0  19622-3 0  9996
2 60542  97.6665 212.6515 0002484 196.0086 164.1061 15.03767205 95018
ARCTIC WEATHER SATELLITE
1 60543U 24149CD  26133.16093380  .00000478  00000+0  55420-4 0  9991
2 60543  97.6807 204.6250 0001636 180.2476 179.8741 14.89795499 94083
CAPELLA-15 (ACADIA-5)   
1 60544U 24149CE  26132.92227473  .00000442  00000+0  48543-4 0  9996
2 60544  97.6781 206.7024 0004262 175.3683 184.7577 14.92415319 94592
HAWK-10B                
1 60545U 24149CF  26133.19842935  .00000628  00000+0  60475-4 0  9997
2 60545  97.6815 209.1032 0004903 195.6774 164.4296 14.96399011 94750
ICEYE-X39               
1 60546U 24149CG  26133.18347901  .00001598  00000+0  13428-3 0  9992
2 60546  97.6822 210.6824 0002276 177.6514 182.4721 14.99708403 94876
UMBRA-10                
1 60547U 24149CH  26132.98615953  .00010372  00000+0  52891-3 0  9992
2 60547  97.6970 219.6481 0002232 109.9708 250.1765 15.16945126 95398
ICEYE-X33               
1 60548U 24149CJ  26133.16836611  .00003079  00000+0  24660-3 0  9999
2 60548  97.7211 212.5224 0000510 326.5121  33.6071 15.00896443 94953
ICEYE-X40               
1 60549U 24149CK  26133.16442579  .00001732  00000+0  15224-3 0  9996
2 60549  97.6815 210.2247 0004875 170.7501 189.3812 14.97828544 94833
SATELIOT_1              
1 60550U 24149CL  26133.15818036  .00002242  00000+0  19510-3 0  9991
2 60550  97.6753 209.6413 0006792 176.0376 184.0901 14.97922733 94827
BRO-14                  
1 60551U 24149CM  26133.15005949  .00000930  00000+0  87738-4 0  9993
2 60551  97.6873 209.5572 0006158 202.0803 158.0154 14.96107699 94755
SATELIOT_3              
1 60552U 24149CN  26133.20043536  .00000944  00000+0  85117-4 0  9998
2 60552  97.6819 210.4430 0004845 188.9594 171.1543 14.97903066 94841
BRO-15                  
1 60553U 24149CP  26133.19850228  .00000180  00000+0  21086-4 0  9998
2 60553  97.6804 209.2398 0007657 195.1182 164.9812 14.96065093 94771
UM5-RIBAT               
1 60554U 24149CQ  26133.20620563  .00001623  00000+0  13227-3 0  9998
2 60554  97.6660 211.4782 0003159 116.8833 243.2714 15.00871114 94946
UM5-EOSAT               
1 60555U 24149CR  26133.18239278  .00001747  00000+0  14049-3 0  9995
2 60555  97.6656 212.3565 0006711 218.7597 141.3146 15.01276031 94964
LASARSAT                
1 62391U 24247Q   26133.19578391  .00023285  00000+0  50290-3 0  9996
2 62391  44.9734  98.4968 0004773 120.9892 239.1466 15.44164427 77902
CROCUBE                 
1 62394U 24247T   26133.16817152  .00021595  00000+0  44259-3 0  9997
2 62394  44.9712  96.5072 0004392 123.9905 236.1402 15.45750204 77925
TEVEL2-4                
1 63213U 25052D   26133.15177645  .00011956  00000+0  37313-3 0  9991
2 63213  97.3947  29.5134 0001641 173.1099 187.0166 15.33358441 64749
TEVEL2-5                
1 63214U 25052E   26132.97276000  .00011308  00000+0  35485-3 0  9995
2 63214  97.3948  29.2919 0001593 172.4870 187.6397 15.33198220 64710
TEVEL2-6                
1 63215U 25052F   26132.46209847  .00010871  00000+0  34176-3 0  9995
2 63215  97.3947  28.7660 0001596 179.6392 180.4852 15.33149501 64634
TEVEL2-1                
1 63217U 25052H   26132.21813958  .00010003  00000+0  31962-3 0  9991
2 63217  97.3919  28.1875 0000999 201.0978 159.0223 15.32655601 64583
TEVEL2-3                
1 63218U 25052J   26132.67098573  .00010612  00000+0  33828-3 0  9999
2 63218  97.3924  28.6575 0001029 198.4062 161.7143 15.32713071 64655
TEVEL2-2                
1 63219U 25052K   26132.41448572  .00010162  00000+0  32453-3 0  9993
2 63219  97.3921  28.3853 0001022 202.9376 157.1820 15.32665711 64615
